{"type":"FeatureCollection","features":[
{"type":"Feature","geometry":{"type":"Point","coordinates":[18.5623141,54.4400569]},"properties":{"name":"Sopot","name:be":"Сопат","name:de":"Zoppot","name:pl":"Sopot","name:ru":"Сопот","name:uk":"Сопот","network":"PKP Intercity;Polregio;SKM Trójmiasto","network:short":"IC;PR;SKMT","operator":"PKP Polskie Linie Kolejowe S.A.","public_transport":"station","railway":"station","railway:ref":"Sp","railway:ref:DB":"XPSO","railway:ref:SKM":"Sp-SKM","train":"yes","wheelchair":"yes","wikidata":"Q7563186","wikipedia":"pl:Sopot (stacja kolejowa)"}},
{"type":"Feature","geometry":{"type":"Point","coordinates":[18.6417851,54.3646358]},"properties":{"check_date":"2025-01-22","name":"Gdańsk Stocznia","name:de":"Danzig Werft","name:pl":"Gdańsk Stocznia","network":"SKM Trójmiasto","network:short":"SKMT","operator":"PKP Szybka Kolej Miejska w Trójmieście Sp. z o.o.","public_transport":"station","railway":"halt","wikidata":"Q1897993","wikipedia":"pl:Gdańsk Stocznia"}},
{"type":"Feature","geometry":{"type":"Point","coordinates":[18.4011499,54.3664602]},"properties":{"name":"Pępowo Kartuskie","operator":"PKP Polskie Linie Kolejowe S.A.","public_transport":"station","railway":"halt","train":"yes","wikidata":"Q2284143","wikipedia":"pl:Pępowo Kartuskie"}},
{"type":"Feature","geometry":{"type":"Point","coordinates":[18.6274077,54.3741905]},"properties":{"name":"Gdańsk Politechnika","name:de":"Danzig Technische Hochschule","name:pl":"Gdańsk Politechnika","network":"SKM Trójmiasto","network:short":"SKMT","operator":"PKP Szybka Kolej Miejska w Trójmieście Sp. z o.o.","public_transport":"station","railway":"halt","wikidata":"Q4436990","wikipedia":"pl:Gdańsk Politechnika"}},
{"type":"Feature","geometry":{"type":"Point","coordinates":[18.4190224,54.3870599]},"properties":{"name":"Rębiechowo","operator":"PKP Polskie Linie Kolejowe S.A.","public_transport":"station","railway":"halt","train":"yes","wikidata":"Q2876930","wikipedia":"pl:Rębiechowo (przystanek kolejowy)"}},
{"type":"Feature","geometry":{"type":"Point","coordinates":[18.4130501,54.3264791]},"properties":{"name":"Stara Piła","operator":"PKP Polskie Linie Kolejowe S.A.","public_transport":"station","railway":"station","railway:ref":"SP","wikidata":"Q2361241","wikipedia":"pl:Stara Piła (ładownia kolejowa)"}},
{"type":"Feature","geometry":{"type":"Point","coordinates":[18.6331559,54.387496]},"properties":{"description":"Przystanek uruchamiany okazjonalnie.","name":"Gdańsk Stadion Expo","operator":"PKP Szybka Kolej Miejska w Trójmieście Sp. z o.o.","public_transport":"station","railway":"halt","start_date":"2012-05-03","train":"yes","wikidata":"Q9266549","wikipedia":"pl:Gdańsk Stadion Expo"}},
{"type":"Feature","geometry":{"type":"Point","coordinates":[18.6359096,54.3014686]},"properties":{"name":"Gdańsk Lipce","name:de":"Danzig Guteherberge","name:pl":"Gdańsk Lipce","operator":"PKP Polskie Linie Kolejowe S.A.","public_transport":"station","railway":"halt","train":"yes","wikidata":"Q2533354","wikipedia":"pl:Gdańsk Lipce"}},
{"type":"Feature","geometry":{"type":"Point","coordinates":[18.6344756,54.324252]},"properties":{"name":"Gdańsk Orunia","name:de":"Danzig Ohra","name:pl":"Gdańsk Orunia","operator":"PKP Polskie Linie Kolejowe S.A.","public_transport":"station","railway":"halt","train":"yes","wikidata":"Q2375480","wikipedia":"pl:Gdańsk Orunia"}},
{"type":"Feature","geometry":{"type":"Point","coordinates":[18.5684877,54.4207672]},"properties":{"name":"Gdańsk Żabianka-AWFiS","name:de":"Danzig Poggenkrug-Sporthochschule","name:pl":"Gdańsk Żabianka-AWFiS","network":"SKM Trójmiasto","network:short":"SKMT","operator":"PKP Szybka Kolej Miejska w Trójmieście Sp. z o.o.","public_transport":"station","railway":"halt","toilets:wheelchair":"yes","wheelchair":"yes","wikidata":"Q2100111","wikipedia":"pl:Gdańsk Żabianka-AWFiS"}},
{"type":"Feature","geometry":{"type":"Point","coordinates":[18.5652352,54.4312893]},"properties":{"name":"Sopot Wyścigi","name:de":"Zoppot Rennplatz","name:pl":"Sopot Wyścigi","network":"SKM Trójmiasto","network:short":"SKMT","operator":"PKP Szybka Kolej Miejska w Trójmieście Sp. z o.o.","public_transport":"station","railway":"halt","train":"yes","wikidata":"Q572961","wikipedia":"pl:Sopot Wyścigi"}},
{"type":"Feature","geometry":{"type":"Point","coordinates":[18.591526,54.3897726]},"properties":{"name":"Gdańsk Zaspa","name:de":"Danzig Saspe","name:pl":"Gdańsk Zaspa","network":"SKM Trójmiasto","network:short":"SKMT","operator":"PKP Szybka Kolej Miejska w Trójmieście Sp. z o.o.","public_transport":"station","railway":"halt","wikidata":"Q1991541","wikipedia":"pl:Gdańsk Zaspa"}},
{"type":"Feature","geometry":{"type":"Point","coordinates":[18.5735495,54.3651261]},"properties":{"bench":"yes","name":"Gdańsk Brętowo","name:de":"Danzig Brentau","name:pl":"Gdańsk Brętowo","network":"Polregio","network:short":"PR","operator":"Pomorska Kolej Metropolitalna S.A.","public_transport":"station","railway":"halt","railway:ref":"Bt","shelter":"yes","wheelchair":"yes","wikidata":"Q9266543","wikipedia":"pl:Gdańsk Brętowo"}},
{"type":"Feature","geometry":{"type":"Point","coordinates":[18.5285628,54.3553612]},"properties":{"name":"Gdańsk Kiełpinek","name:de":"Danzig Klein Kelpin","name:pl":"Gdańsk Kiełpinek","network":"Polregio","network:short":"PR","operator":"Pomorska Kolej Metropolitalna S.A.","public_transport":"station","railway":"halt","train":"yes","wheelchair":"yes","wikidata":"Q16549056","wikipedia":"pl:Gdańsk Kiełpinek"}},
{"type":"Feature","geometry":{"type":"Point","coordinates":[18.5063816,54.3734866]},"properties":{"name":"Gdańsk Matarnia","name:de":"Danzig Mattern","name:ja":"グダニスク・マタルニャ","name:pl":"Gdańsk Matarnia","operator":"Pomorska Kolej Metropolitalna S.A.","public_transport":"station","railway":"halt","train":"yes","wheelchair":"yes","wikidata":"Q16549059","wikipedia":"pl:Gdańsk Matarnia"}},
{"type":"Feature","geometry":{"type":"Point","coordinates":[18.5720769,54.378158]},"properties":{"name":"Gdańsk Niedźwiednik","name:de":"Danzig Bärenwinkel","name:pl":"Gdańsk Niedźwiednik","network":"Polregio","network:short":"PR","operator":"Pomorska Kolej Metropolitalna S.A.","public_transport":"station","railway":"halt","train":"yes","wheelchair":"yes","wikidata":"Q16549061","wikipedia":"pl:Gdańsk Niedźwiednik"}},
{"type":"Feature","geometry":{"type":"Point","coordinates":[18.5502959,54.3537062]},"properties":{"name":"Gdańsk Jasień","name:de":"Danzig Nenkau","name:pl":"Gdańsk Jasień","network":"Polregio","network:short":"PR","operator":"Pomorska Kolej Metropolitalna S.A.","public_transport":"station","railway":"halt","train":"yes","wheelchair":"yes","wikidata":"Q16549050","wikipedia":"pl:Gdańsk Jasień"}},
{"type":"Feature","geometry":{"type":"Point","coordinates":[18.6443526,54.3468793]},"properties":{"name":"Gdańsk Śródmieście","name:de":"Danzig Stadtmitte","name:pl":"Gdańsk Śródmieście","network":"SKM Trójmiasto","network:short":"SKMT","operator":"PKP Szybka Kolej Miejska w Trójmieście Sp. z o.o.","public_transport":"station","railway":"halt","train":"yes","wikidata":"Q11699516","wikipedia":"pl:Gdańsk Śródmieście"}},
{"type":"Feature","geometry":{"type":"Point","coordinates":[18.6441946,54.3564345]},"properties":{"addr:city":"Gdańsk","addr:housenumber":"2","addr:postcode":"80-895","addr:street":"Podwale Grodzkie","name":"Gdańsk Główny","name:de":"Danzig Hauptbahnhof","name:en":"Gdańsk railway station","name:ja":"グダニスク中央駅","name:ja-Hira":"ぐだにすくちゅうおうえき","name:pl":"Gdańsk Główny","name:ru":"Гданьск Главный","name:uk":"Ґданськ Головний","network":"Polregio;PKP Intercity;SKM Trójmiasto","network:short":"PR;IC;SKMT","operator":"PKP Polskie Linie Kolejowe S.A.","public_transport":"station","railway":"station","railway:ref":"G","railway:ref:DB":"XPG","railway:ref:SKM":"G-SKM","train":"yes","wheelchair":"yes","wikidata":"Q557448","wikipedia":"pl:Gdańsk Główny"}},
{"type":"Feature","geometry":{"type":"Point","coordinates":[18.6055111,54.3817696]},"properties":{"name":"Gdańsk Wrzeszcz","name:de":"Danzig Wrzeszcz","name:pl":"Gdańsk Wrzeszcz","name:ru":"Гданьск Вжещч","name:uk":"Гданськ Вжещч","network":"PKP Intercity;Polregio;SKM Trójmiasto","network:short":"IC;PR;SKM","old_name:de":"Danzig Langfuhr","operator":"PKP Polskie Linie Kolejowe S.A.","public_transport":"station","railway":"station","railway:ref":"Wr","railway:ref:DB":"XPGWR","railway:ref:SKM":"Wr-SKM","url":"https://polska-org.pl/7951300,Gdansk,Stacja_kolejowa_Gdansk_Wrzeszcz.html","url:0":"https://fotopolska.eu/105863,obiekt.html?map_z=18","wheelchair":"yes","wikidata":"Q934967","wikipedia":"pl:Gdańsk Wrzeszcz"}},
{"type":"Feature","geometry":{"type":"Point","coordinates":[18.5718541,54.4094163]},"properties":{"historic:railway":"station","name":"Gdańsk Oliwa","name:de":"Danzig Oliva","name:pl":"Gdańsk Oliwa","network":"Polregio;PKP Intercity","network:short":"PR;IC","operator":"PKP Polskie Linie Kolejowe S.A.","public_transport":"station","railway":"halt","railway:ref":"GOl","railway:ref:DB":"XPGOL","railway:ref:SKM":"GOl-SKM","wheelchair":"yes","wikidata":"Q594376","wikipedia":"pl:Gdańsk Oliwa"}},
{"type":"Feature","geometry":{"type":"Point","coordinates":[18.4593191,54.3478157]},"properties":{"name":"Leźno","operator":"PKP Polskie Linie Kolejowe S.A.","public_transport":"station","railway":"halt","train":"yes","wikidata":"Q6538423","wikipedia":"pl:Leźno (przystanek kolejowy)"}},
{"type":"Feature","geometry":{"type":"Point","coordinates":[18.4921682,54.3623346]},"properties":{"name":"Gdańsk Kokoszki","name:de":"Danzig Kokoschken","name:pl":"Gdańsk Kokoszki","network":"Polregio","note":"Mijanka, ładownia i przystanek osobowy","operator":"PKP Polskie Linie Kolejowe S.A.","public_transport":"station","railway":"station","railway:ref":"GK","wikidata":"Q1921209","wikipedia":"en:Kokoszki railway station"}},
{"type":"Feature","geometry":{"type":"Point","coordinates":[18.4665403,54.3827282]},"properties":{"name":"Gdańsk Port Lotniczy","name:be":"Аэрапорт Гданьск","name:ja":"グダニスク空港","network":"Polregio","network:short":"PR","operator":"Pomorska Kolej Metropolitalna S.A.","public_transport":"station","railway":"halt","wheelchair":"yes","wikidata":"Q16549063","wikipedia":"pl:Gdańsk Port Lotniczy"}},
{"type":"Feature","geometry":{"type":"Point","coordinates":[18.5766182,54.4007278]},"properties":{"name":"Gdańsk Przymorze-Uniwersytet","name:pl":"Gdańsk Przymorze-Uniwersytet","network":"SKM Trójmiasto","network:short":"SKMT","operator":"PKP Szybka Kolej Miejska w Trójmieście Sp. z o.o.","public_transport":"station","railway":"halt","train":"yes","wikidata":"Q2192808","wikipedia":"pl:Gdańsk Przymorze-Uniwersytet"}},
{"type":"Feature","geometry":{"type":"Point","coordinates":[18.4528085,54.4223889]},"properties":{"name":"Gdańsk Osowa","name:de":"Danzig Espenkrug","name:pl":"Gdańsk Osowa","name:ru":"Гданьск Осова","name:uk":"Гданськ Осова","operator":"PKP Polskie Linie Kolejowe S.A.","public_transport":"station","railway":"station","railway:ref":"Os","wikidata":"Q2191548","wikipedia":"pl:Gdańsk Osowa"}},
{"type":"Feature","geometry":{"type":"Point","coordinates":[18.4465066,54.3874305]},"properties":{"name":"Gdańsk Rębiechowo","name:de":"Danzig Ramkau","name:pl":"Gdańsk Rębiechowo","name:ru":"Гданьск Ренбехово","name:uk":"Гданськ Ренбехово","network":"Polregio","network:short":"PR","network:wikidata":"Q1139703","note":"Przystanek osobowy (wskaźniki W16 po obu stronach)","operator":"Pomorska Kolej Metropolitalna S.A.","public_transport":"station","railway":"halt","railway:ref":"Rb","train":"yes","wheelchair":"yes","wikidata":"Q16485216","wikipedia":"pl:Gdańsk Rębiechowo"}},
{"type":"Feature","geometry":{"type":"Point","coordinates":[18.5788345,54.3917534]},"properties":{"name":"Gdańsk Strzyża","name:de":"Danzig Striess","name:pl":"Gdańsk Strzyża","network":"Polregio","network:short":"PR","operator":"Pomorska Kolej Metropolitalna S.A.","public_transport":"station","railway":"halt","train":"yes","wikidata":"Q16549069","wikipedia":"pl:Gdańsk Strzyża"}},
{"type":"Feature","geometry":{"type":"Point","coordinates":[18.4871284,54.3782828]},"properties":{"name":"Gdańsk Firoga","network":"Polregio","network:short":"PR","operator":"Pomorska Kolej Metropolitalna S.A.","public_transport":"station","railway":"halt","railway:ref":"Fg","start_date":"2022-12-11","wheelchair":"yes","wikidata":"Q110390173","wikipedia":"pl:Gdańsk Firoga"}},
{"type":"Feature","geometry":{"type":"Point","coordinates":[18.5720912,54.4096245]},"properties":{"name":"Gdańsk Oliwa SKM","name:pl":"Gdańsk Oliwa SKM","network":"SKM Trójmiasto","network:short":"SKMT","operator":"PKP Szybka Kolej Miejska w Trójmieście Sp. z o.o.","public_transport":"station","railway":"halt","railway:ref:SKM":"GOl-SKM","wheelchair":"yes","wikidata":"Q594376","wikipedia":"pl:Gdańsk Oliwa"}}
]}
